#dP2024  4 17  0  0  0.00000000      96 __u+U IGS20 EXT  IAC
## 2310 259200.00000000   900.00000000 60417 0.0000000000000
+  116   C07C08C09C10C11C12C13C14C16C19C20C21C22C23C24C25C26
+        C27C28C29C30C32C33C34C35C36C37C38C39C40C41C42C43C44
+        C45C46E02E03E04E05E07E08E09E10E11E12E13E14E15E19E21
+        E24E25E26E27E30E31E33E34E36G02G03G04G05G06G07G08G09
+        G10G11G12G13G14G15G16G17G18G19G20G21G22G23G24G25G26
+        G27G28G29G30G31G32J02J03J04R01R02R03R04R05R08R09R11
+        R12R13R14R15R16R17R18R19R20R21R22R24R25R26  0  0  0
++         8 10 11  7  9 10 10 10 10  8  8  9 10  9  9  8  8
++         8  9  8  8  8  8  9  7  7  8 10 11  8  8  9 10  8
++        10  8  7  8  8  8  7  8  8  9  9  7  9  8  8  8  8
++         8  8  8  9  8  8  8  8  8  7  7  7  8  7  8  7  8
++         8  8  8  8  7  7  8  8  8  8  8  7  8  7  7  8  8
++         7  7  7  8  8  8  8  8  0  7  8  8  7  8  8  7  9
++         9  9  8  9  9  8  7 10  8  8  9  7  8  8  0  0  0
%c M  cc GPS ccc cccc cccc cccc cccc ccccc ccccc ccccc ccccc
%c cc cc ccc ccc cccc cccc cccc cccc ccccc ccccc ccccc ccccc
%f  0.0000000  0.000000000  0.00000000000  0.000000000000000
%f  0.0000000  0.000000000  0.00000000000  0.000000000000000
%i    0    0    0    0      0      0      0      0         0
%i    0    0    0    0      0      0      0      0         0
/* IAC                                ULTRA-RAPID PREDICTION
/* S/V CLOCKS ARE ALIGNED TO GNSS TIME                      
/* G:C1WC2W R:C1PC2P E:C1XC5X C:C2IC6I J:C1CC2S             
/* PCV:IGS20_2290 OL/AL:FES2004  NONE     YN ORB:CoN CLK:CoN
*  2024 04 17  8 45  0.00000000
PC07 -16342.800740  37707.585171   8974.602797   -812.776657
PC08   -775.073263  35474.063804  22927.637393    -32.422172
PC09   -387.476166  24718.650019 -33622.694593   -774.137689
PC10  -8800.476030  37825.047693  16045.392700     -2.660720
PC11  10114.160168  13771.477444  22127.442718    516.456117
PC12 -11718.294828  15044.403483  20407.453360   -232.809731
PC13   4396.367608  38728.555669  16572.962244    431.530775
PC14   3358.450528  22014.352568 -16759.609949    664.208316
PC16 -12943.152290  21206.804975 -33817.163965   -463.722713
PC19  -9930.841601 -14485.354799  21723.151512   -914.258356
PC20   2647.141095 -25661.332497  10708.716487   -369.048320
PC21 -14869.740724  22223.130338   7942.054030   -963.209124
PC22 -17574.782827   5669.333419  20912.508657    -35.855123
PC23  20866.102743   6275.761408  17439.101353   -775.848084
PC24   5093.273899  23394.850092 -14367.227622    938.841171
PC25  18934.760020  20369.054326   2418.601684    376.985678
PC26 -10564.788977  12685.025589 -22519.394129   -278.437615
PC27  19983.273200 -12918.427598 -14592.135595    300.207840
PC28  27691.168541  -3444.185568    238.350433    229.595050
PC29 -19279.090740  -9445.259128 -17839.461833    269.335840
PC30   1367.939694 -16359.525238 -22575.910323    -57.718244
PC32  14709.361686 -22345.982014  -7964.466065   -603.715662
PC33   9999.076219  14465.574587 -21654.095444   -971.834006
PC34    445.915240  16200.522389  22702.185422    414.091777
PC35 -27589.162750   4308.380904   -500.920792    384.974887
PC36 -18357.454469 -20893.478176  -2213.758982     54.038191
PC37  11100.347065 -12151.690314  22543.091236   -959.697786
PC38  -6502.376609  31394.099740  27501.010507    149.547740
PC39 -17876.700902  20105.929750 -32454.622882     -8.005285
PC40 -23698.763697  33823.646488   7702.708980    -65.865490
PC41  17440.318189  -4872.976795 -21181.681188   -926.967451
PC42  -3820.288306  26053.170833  -9135.878697   -443.063600
PC43  18466.491404  10067.175575  18314.974733     68.316663
PC44 -19648.064529  13685.155048  14340.942901    446.309323
PC45 -20766.548613  -6398.512067 -17500.060720    -80.636376
PC46  -5749.867449 -23535.090454  13810.195880   -140.684339
PE02   3471.306869  29315.645714   2265.238539    120.148406
PE03  -1169.499152  19545.691313 -22190.413947   -107.784360
PE04 -18004.913508  -6798.865963  22501.320390   -375.580289
PE05 -19300.942704  20601.111001  -8882.276279   4739.346537
PE07  26244.967009  -9345.278942 -10011.484645   -115.044656
PE08  17327.407442   7313.197507 -22854.346733   -256.353077
PE09 -26191.960309   9284.445215  10178.386666   -410.240989
PE10 -27521.004145  -9371.487995   5565.630739   -617.797185
PE11 -25445.719631  -1617.701965  15041.573927   3025.536904
PE12 -25267.791665 -14998.515945  -3691.892575   -997.929679
PE13  25662.686476   2088.936381 -14588.230444    -21.065055
PE14  14836.234221 -24597.992972 -15038.710527      9.104129
PE15  25021.676107  15218.428529   4250.648912    -97.586933
PE19   3509.836662 -20166.061960  21397.296211   -227.976785
PE21   8769.161147 -23942.018387  15029.698062   -589.701250
PE24 -16578.908730   3944.141569 -24222.832559   -712.224689
PE25  -9006.947044  23656.832110 -15345.556041      3.435134
PE26  10768.141544 -12535.523767 -24554.704392    428.276512
PE27  16459.561101  -4336.312258  24212.593798   -326.532098
PE30  14272.111750  17778.899044  18869.210375   -207.441508
PE31 -14350.853018 -17574.452299 -19007.049407    -21.063094
PE33  -9188.069406 -19171.991181 -20596.947652     10.526697
PE34   9763.932075  19205.531365  20291.125489   -106.149054
PE36 -11325.496046  12015.849172  24568.285073   -214.541681
PG02 -20551.038425 -14012.437295  -9214.507679   -451.931204
PG03 -12058.639337 -17876.204417  15442.689540    315.273355
PG04 -14246.848289  -7993.185755  20986.622935    340.714073
PG05   5939.247293  25673.835357  -3062.175337   -169.441496
PG06 -12992.325718   9342.872208  21283.080058    317.858584
PG07 -24847.037377  -4673.481920  -8369.156238   -109.163261
PG08  -5807.160192 -14702.005389 -21399.564890    126.959299
PG09 -22075.451214   4268.848346  14101.647279    163.432865
PG10  11070.253776 -14780.724482 -18755.990114     -9.906945
PG11    229.831982  16361.042103  20954.596652   -638.707768
PG12  10508.141153  19644.558985  14218.072720   -497.330878
PG13  -4462.524825  17480.892427 -19616.278542    643.410613
PG14 -13656.405772  10741.269779 -20006.176265    378.406408
PG15   7687.624204  14524.647273 -21335.698531    149.328468
PG16    -29.928457 -26300.886811    452.003801   -314.646517
PG17 -23082.897105  13134.086728  -1741.922851    711.038066
PG18  24333.770259   3925.506700 -10128.323315   -595.909371
PG19 -19416.274621  16421.714059   6768.415587    469.386892
PG20    362.126214  25047.623938   9118.180460    379.874726
PG21 -16984.791549 -15761.911454 -13386.510169    126.845661
PG22 -10445.864850  18895.322375 -15238.196944     -0.702271
PG23  14738.333558  -1521.777373 -22021.289296    203.029958
PG24  18615.174676  15516.348591 -11749.119014   -460.299178
PG25  15015.588530   9952.427069  19260.925219    493.938224
PG26   5735.867038 -22214.405534  12911.818231    165.546629
PG27   6413.970975 -19376.137033 -17047.453110    -19.129144
PG28  15296.057335  -8695.175988  19880.692336   -206.697847
PG29  21385.142907   -431.268018  15761.078852   -601.597359
PG30 -19883.539123   4709.857640 -16965.995449   -403.998354
PG31   5402.549169 -14292.913181  21498.461198   -228.006499
PG32  21174.684751 -15848.923268    348.141350   -618.188508
PJ02 -21504.172622  30604.478648 -14926.558204     -4.162564
PJ03 -29131.800488  22589.904404  25584.607095     -0.032171
PJ04      0.000000      0.000000      0.000000     50.438727
PR01   9568.877573 -22570.647326   7090.138534     82.729576
PR02  -1579.240898 -15113.624971  20519.825605    -22.760489
PR03 -12719.487205    590.708459  22164.996802     98.413246
PR04 -16559.769731  15451.331807  11779.408908    232.396450
PR05 -11724.316701  22111.047376  -4965.064663    130.084632
PR08  16426.779217 -15775.225647 -11392.311095    -75.104694
PR09  12482.297417  22194.844648    -13.302815    181.476440
PR11  10728.760694  -3033.478620  22950.432160     27.694461
PR12  -1328.065696 -19424.597690  16495.783780     39.091008
PR13 -11027.545459 -22856.801412   2550.969924    -46.434866
PR14 -15519.427895 -12529.188778 -15903.455934     26.388734
PR15 -10082.666273   4554.583355 -22966.402600     80.433303
PR16   1351.319591  19209.675687 -16700.255373     24.863335
PR17 -24593.864677  -3769.028518  -5537.696236     78.750900
PR18 -22824.721747   3522.321055  10901.498509    137.585432
PR19 -11345.512576   8459.588893  21217.806525   -273.376233
PR20  11499.854561  10196.313385  20346.718078   -111.398423
PR21  24588.957333   3958.892191   5556.172485    -93.454336
PR22  22314.307087  -3613.231227 -11779.694505    115.487013
PR24 -12497.341404 -10004.370473 -19843.734182    -52.179210
PR25  24510.843616   4737.302424   5283.714716    -29.753678
PR26  16392.876411 -15066.091003 -12446.791827    -24.496902
EOF
